{"fetched_at":"2026-07-12T17:32:22.539Z","source":"https://celestrak.org/NORAD/elements/gp.php?GROUP=kuiper&FORMAT=JSON","constellation":"kuiper","records":[{"OBJECT_NAME":"KUIPER-00282","OBJECT_ID":"2026-118A","EPOCH":"2026-07-12T12:00:02.000160","CLASSIFICATION_TYPE":"U","MEAN_MOTION":15.2102997,"ECCENTRICITY":0.0012039,"INCLINATION":51.8714,"RA_OF_ASC_NODE":292.0647,"ARG_OF_PERICENTER":290.4133,"MEAN_ANOMALY":262.7049,"EPHEMERIS_TYPE":0,"NORAD_CAT_ID":69267,"ELEMENT_SET_NO":999,"REV_AT_EPOCH":576,"BSTAR":-0.060498,"MEAN_MOTION_DOT":-0.01250433,"MEAN_MOTION_DDOT":0},{"OBJECT_NAME":"KUIPER-00383","OBJECT_ID":"2026-118B","EPOCH":"2026-07-12T11:56:32.861184","CLASSIFICATION_TYPE":"U","MEAN_MOTION":15.32712929,"ECCENTRICITY":0.0010085,"INCLINATION":51.858,"RA_OF_ASC_NODE":291.7479,"ARG_OF_PERICENTER":279.1799,"MEAN_ANOMALY":80.8044,"EPHEMERIS_TYPE":0,"NORAD_CAT_ID":69268,"ELEMENT_SET_NO":999,"REV_AT_EPOCH":786,"BSTAR":0.00025074,"MEAN_MOTION_DOT":0.00007684,"MEAN_MOTION_DDOT":0},{"OBJECT_NAME":"KUIPER-00527","OBJECT_ID":"2026-118C","EPOCH":"2026-07-12T12:00:02.000160","CLASSIFICATION_TYPE":"U","MEAN_MOTION":15.31105617,"ECCENTRICITY":0.000938,"INCLINATION":51.8648,"RA_OF_ASC_NODE":291.5995,"ARG_OF_PERICENTER":278.2239,"MEAN_ANOMALY":160.3271,"EPHEMERIS_TYPE":0,"NORAD_CAT_ID":69269,"ELEMENT_SET_NO":999,"REV_AT_EPOCH":545,"BSTAR":-0.064084,"MEAN_MOTION_DOT":-0.01766245,"MEAN_MOTION_DDOT":0},{"OBJECT_NAME":"KUIPER-00562","OBJECT_ID":"2026-118D","EPOCH":"2026-07-12T12:29:00.057984","CLASSIFICATION_TYPE":"U","MEAN_MOTION":15.38055064,"ECCENTRICITY":0.0000472,"INCLINATION":51.8721,"RA_OF_ASC_NODE":290.4634,"ARG_OF_PERICENTER":191.702,"MEAN_ANOMALY":168.3956,"EPHEMERIS_TYPE":0,"NORAD_CAT_ID":69270,"ELEMENT_SET_NO":999,"REV_AT_EPOCH":788,"BSTAR":0.00065469,"MEAN_MOTION_DOT":0.00024591,"MEAN_MOTION_DDOT":0},{"OBJECT_NAME":"KUIPER-00570","OBJECT_ID":"2026-118E","EPOCH":"2026-07-12T12:00:02.000160","CLASSIFICATION_TYPE":"U","MEAN_MOTION":15.06565761,"ECCENTRICITY":0.0007888,"INCLINATION":51.8793,"RA_OF_ASC_NODE":292.9496,"ARG_OF_PERICENTER":292.581,"MEAN_ANOMALY":143.3206,"EPHEMERIS_TYPE":0,"NORAD_CAT_ID":69271,"ELEMENT_SET_NO":999,"REV_AT_EPOCH":584,"BSTAR":-0.0028854,"MEAN_MOTION_DOT":-0.00043257,"MEAN_MOTION_DDOT":0},{"OBJECT_NAME":"KUIPER-00572","OBJECT_ID":"2026-118F","EPOCH":"2026-07-12T12:00:02.000160","CLASSIFICATION_TYPE":"U","MEAN_MOTION":15.30345257,"ECCENTRICITY":0.0006122,"INCLINATION":51.8719,"RA_OF_ASC_NODE":291.1819,"ARG_OF_PERICENTER":269.7251,"MEAN_ANOMALY":28.2056,"EPHEMERIS_TYPE":0,"NORAD_CAT_ID":69272,"ELEMENT_SET_NO":999,"REV_AT_EPOCH":535,"BSTAR":-0.037671,"MEAN_MOTION_DOT":-0.01032982,"MEAN_MOTION_DDOT":0},{"OBJECT_NAME":"KUIPER-00581","OBJECT_ID":"2026-118G","EPOCH":"2026-07-12T12:00:02.000160","CLASSIFICATION_TYPE":"U","MEAN_MOTION":15.05300532,"ECCENTRICITY":0.0007291,"INCLINATION":51.8891,"RA_OF_ASC_NODE":292.6291,"ARG_OF_PERICENTER":287.3636,"MEAN_ANOMALY":331.2888,"EPHEMERIS_TYPE":0,"NORAD_CAT_ID":69273,"ELEMENT_SET_NO":999,"REV_AT_EPOCH":549,"BSTAR":-0.0030015,"MEAN_MOTION_DOT":-0.00043476,"MEAN_MOTION_DDOT":0},{"OBJECT_NAME":"KUIPER-00584","OBJECT_ID":"2026-118H","EPOCH":"2026-07-12T12:00:02.000160","CLASSIFICATION_TYPE":"U","MEAN_MOTION":14.95386173,"ECCENTRICITY":0.001114,"INCLINATION":51.8916,"RA_OF_ASC_NODE":294.4402,"ARG_OF_PERICENTER":305.5795,"MEAN_ANOMALY":95.0092,"EPHEMERIS_TYPE":0,"NORAD_CAT_ID":69274,"ELEMENT_SET_NO":999,"REV_AT_EPOCH":555,"BSTAR":-0.0049867,"MEAN_MOTION_DOT":-0.00055538,"MEAN_MOTION_DDOT":0},{"OBJECT_NAME":"KUIPER-00587","OBJECT_ID":"2026-118J","EPOCH":"2026-07-12T11:58:20.038656","CLASSIFICATION_TYPE":"U","MEAN_MOTION":15.37107383,"ECCENTRICITY":0.0007346,"INCLINATION":51.8625,"RA_OF_ASC_NODE":291.037,"ARG_OF_PERICENTER":283.7072,"MEAN_ANOMALY":76.3097,"EPHEMERIS_TYPE":0,"NORAD_CAT_ID":69275,"ELEMENT_SET_NO":999,"REV_AT_EPOCH":787,"BSTAR":0.00059844,"MEAN_MOTION_DOT":0.00021763,"MEAN_MOTION_DDOT":0},{"OBJECT_NAME":"KUIPER-00590","OBJECT_ID":"2026-118K","EPOCH":"2026-07-12T12:00:02.000160","CLASSIFICATION_TYPE":"U","MEAN_MOTION":15.19379759,"ECCENTRICITY":0.0001284,"INCLINATION":51.8794,"RA_OF_ASC_NODE":291.4118,"ARG_OF_PERICENTER":18.142,"MEAN_ANOMALY":204.1805,"EPHEMERIS_TYPE":0,"NORAD_CAT_ID":69276,"ELEMENT_SET_NO":999,"REV_AT_EPOCH":476,"BSTAR":-0.053562,"MEAN_MOTION_DOT":-0.01051859,"MEAN_MOTION_DDOT":0},{"OBJECT_NAME":"KUIPER-00592","OBJECT_ID":"2026-118L","EPOCH":"2026-07-12T12:00:02.000160","CLASSIFICATION_TYPE":"U","MEAN_MOTION":15.23708245,"ECCENTRICITY":0.0001751,"INCLINATION":51.8762,"RA_OF_ASC_NODE":291.2787,"ARG_OF_PERICENTER":103.142,"MEAN_ANOMALY":188.9389,"EPHEMERIS_TYPE":0,"NORAD_CAT_ID":69277,"ELEMENT_SET_NO":999,"REV_AT_EPOCH":407,"BSTAR":-0.079268,"MEAN_MOTION_DOT":-0.01738969,"MEAN_MOTION_DDOT":0},{"OBJECT_NAME":"KUIPER-00593","OBJECT_ID":"2026-118M","EPOCH":"2026-07-12T12:33:10.993824","CLASSIFICATION_TYPE":"U","MEAN_MOTION":15.38696494,"ECCENTRICITY":0.0003003,"INCLINATION":51.8725,"RA_OF_ASC_NODE":290.488,"ARG_OF_PERICENTER":270.2283,"MEAN_ANOMALY":89.836,"EPHEMERIS_TYPE":0,"NORAD_CAT_ID":69278,"ELEMENT_SET_NO":999,"REV_AT_EPOCH":794,"BSTAR":-0.00012007,"MEAN_MOTION_DOT":-0.00005059,"MEAN_MOTION_DDOT":0},{"OBJECT_NAME":"KUIPER-00594","OBJECT_ID":"2026-118N","EPOCH":"2026-07-12T10:56:36.905280","CLASSIFICATION_TYPE":"U","MEAN_MOTION":15.37397694,"ECCENTRICITY":0.0002244,"INCLINATION":51.8735,"RA_OF_ASC_NODE":290.7836,"ARG_OF_PERICENTER":45.969,"MEAN_ANOMALY":314.1482,"EPHEMERIS_TYPE":0,"NORAD_CAT_ID":69279,"ELEMENT_SET_NO":999,"REV_AT_EPOCH":787,"BSTAR":0.00053974,"MEAN_MOTION_DOT":0.00019759,"MEAN_MOTION_DDOT":0},{"OBJECT_NAME":"KUIPER-00595","OBJECT_ID":"2026-118P","EPOCH":"2026-07-12T12:00:02.000160","CLASSIFICATION_TYPE":"U","MEAN_MOTION":15.37422526,"ECCENTRICITY":0.0000993,"INCLINATION":51.8721,"RA_OF_ASC_NODE":290.6067,"ARG_OF_PERICENTER":356.4834,"MEAN_ANOMALY":232.7347,"EPHEMERIS_TYPE":0,"NORAD_CAT_ID":69280,"ELEMENT_SET_NO":999,"REV_AT_EPOCH":559,"BSTAR":-0.00032386,"MEAN_MOTION_DOT":-0.00012439,"MEAN_MOTION_DDOT":0},{"OBJECT_NAME":"KUIPER-00596","OBJECT_ID":"2026-118Q","EPOCH":"2026-07-12T12:00:02.000160","CLASSIFICATION_TYPE":"U","MEAN_MOTION":14.95646937,"ECCENTRICITY":0.0010107,"INCLINATION":51.8899,"RA_OF_ASC_NODE":294.3042,"ARG_OF_PERICENTER":283.0768,"MEAN_ANOMALY":209.4508,"EPHEMERIS_TYPE":0,"NORAD_CAT_ID":69281,"ELEMENT_SET_NO":999,"REV_AT_EPOCH":566,"BSTAR":-0.0053255,"MEAN_MOTION_DOT":-0.00059641,"MEAN_MOTION_DDOT":0},{"OBJECT_NAME":"KUIPER-00597","OBJECT_ID":"2026-118R","EPOCH":"2026-07-12T11:39:46.110240","CLASSIFICATION_TYPE":"U","MEAN_MOTION":15.37721522,"ECCENTRICITY":0.0005819,"INCLINATION":51.8648,"RA_OF_ASC_NODE":290.964,"ARG_OF_PERICENTER":274.1368,"MEAN_ANOMALY":85.8954,"EPHEMERIS_TYPE":0,"NORAD_CAT_ID":69282,"ELEMENT_SET_NO":999,"REV_AT_EPOCH":787,"BSTAR":0.0004158,"MEAN_MOTION_DOT":0.00015291,"MEAN_MOTION_DDOT":0},{"OBJECT_NAME":"KUIPER-00599","OBJECT_ID":"2026-118S","EPOCH":"2026-07-12T13:03:36.256032","CLASSIFICATION_TYPE":"U","MEAN_MOTION":15.37831349,"ECCENTRICITY":0.000568,"INCLINATION":51.8707,"RA_OF_ASC_NODE":290.62,"ARG_OF_PERICENTER":274.3758,"MEAN_ANOMALY":85.658,"EPHEMERIS_TYPE":0,"NORAD_CAT_ID":69283,"ELEMENT_SET_NO":999,"REV_AT_EPOCH":788,"BSTAR":0.00041708,"MEAN_MOTION_DOT":0.00015394,"MEAN_MOTION_DDOT":0},{"OBJECT_NAME":"KUIPER-00600","OBJECT_ID":"2026-118T","EPOCH":"2026-07-12T11:53:43.622592","CLASSIFICATION_TYPE":"U","MEAN_MOTION":15.3738696,"ECCENTRICITY":0.0007964,"INCLINATION":51.8646,"RA_OF_ASC_NODE":291.0205,"ARG_OF_PERICENTER":277.2012,"MEAN_ANOMALY":82.8069,"EPHEMERIS_TYPE":0,"NORAD_CAT_ID":69284,"ELEMENT_SET_NO":999,"REV_AT_EPOCH":787,"BSTAR":0.00066356,"MEAN_MOTION_DOT":0.00024409,"MEAN_MOTION_DDOT":0},{"OBJECT_NAME":"KUIPER-00601","OBJECT_ID":"2026-118U","EPOCH":"2026-07-12T12:00:02.000160","CLASSIFICATION_TYPE":"U","MEAN_MOTION":15.20710305,"ECCENTRICITY":0.0003939,"INCLINATION":51.8817,"RA_OF_ASC_NODE":291.4117,"ARG_OF_PERICENTER":285.5009,"MEAN_ANOMALY":266.4791,"EPHEMERIS_TYPE":0,"NORAD_CAT_ID":69285,"ELEMENT_SET_NO":999,"REV_AT_EPOCH":537,"BSTAR":-0.09446,"MEAN_MOTION_DOT":-0.01910194,"MEAN_MOTION_DDOT":0},{"OBJECT_NAME":"KUIPER-00602","OBJECT_ID":"2026-118V","EPOCH":"2026-07-12T12:28:00.177600","CLASSIFICATION_TYPE":"U","MEAN_MOTION":15.38868759,"ECCENTRICITY":0.0002488,"INCLINATION":51.8708,"RA_OF_ASC_NODE":290.4593,"ARG_OF_PERICENTER":235.3472,"MEAN_ANOMALY":124.7281,"EPHEMERIS_TYPE":0,"NORAD_CAT_ID":69286,"ELEMENT_SET_NO":999,"REV_AT_EPOCH":788,"BSTAR":0.00043252,"MEAN_MOTION_DOT":0.00016535,"MEAN_MOTION_DDOT":0},{"OBJECT_NAME":"KUIPER-00603","OBJECT_ID":"2026-118W","EPOCH":"2026-07-12T12:53:23.051904","CLASSIFICATION_TYPE":"U","MEAN_MOTION":15.38187491,"ECCENTRICITY":0.0004849,"INCLINATION":51.8688,"RA_OF_ASC_NODE":290.5683,"ARG_OF_PERICENTER":271.7786,"MEAN_ANOMALY":88.2645,"EPHEMERIS_TYPE":0,"NORAD_CAT_ID":69287,"ELEMENT_SET_NO":999,"REV_AT_EPOCH":788,"BSTAR":0.00045012,"MEAN_MOTION_DOT":0.00016844,"MEAN_MOTION_DDOT":0},{"OBJECT_NAME":"KUIPER-00605","OBJECT_ID":"2026-118X","EPOCH":"2026-07-12T12:00:02.000160","CLASSIFICATION_TYPE":"U","MEAN_MOTION":15.07065173,"ECCENTRICITY":0.0003162,"INCLINATION":51.8853,"RA_OF_ASC_NODE":292.6357,"ARG_OF_PERICENTER":337.5734,"MEAN_ANOMALY":12.0131,"EPHEMERIS_TYPE":0,"NORAD_CAT_ID":69288,"ELEMENT_SET_NO":999,"REV_AT_EPOCH":316,"BSTAR":-0.0066268,"MEAN_MOTION_DOT":-0.00099471,"MEAN_MOTION_DDOT":0},{"OBJECT_NAME":"KUIPER-00606","OBJECT_ID":"2026-118Y","EPOCH":"2026-07-12T12:47:27.642912","CLASSIFICATION_TYPE":"U","MEAN_MOTION":15.38296124,"ECCENTRICITY":0.0003625,"INCLINATION":51.8708,"RA_OF_ASC_NODE":290.5527,"ARG_OF_PERICENTER":273.6151,"MEAN_ANOMALY":86.4422,"EPHEMERIS_TYPE":0,"NORAD_CAT_ID":69289,"ELEMENT_SET_NO":999,"REV_AT_EPOCH":788,"BSTAR":0.00048763,"MEAN_MOTION_DOT":0.00018348,"MEAN_MOTION_DDOT":0}]}
